{
  "norad_id": 51857,
  "name": "STARLINK-3571",
  "history": [
    {
      "epoch": "2026-03-28T20:18:26.775936Z",
      "apogee_km": 540.66825147283,
      "perigee_km": 538.8034696645345,
      "latitude_deg": 1.3887394329478388e-05,
      "longitude_deg": 162.2633111860753,
      "height_km": 540.7734987560544,
      "semi_major_axis_km": 6917.872860568682,
      "eccentricity": 0.00013478,
      "inclination_deg": 53.2181,
      "raan_deg": 293.1356,
      "arg_perigee_deg": 98.749,
      "mean_anomaly_deg": 261.3655,
      "mean_motion_rev_day": 15.08842463
    },
    {
      "epoch": "2026-03-28T23:29:13.009920Z",
      "apogee_km": 540.6654125377536,
      "perigee_km": 538.8018765435272,
      "latitude_deg": 3.31266726394907e-05,
      "longitude_deg": 113.84520602615807,
      "height_km": 540.7764584329294,
      "semi_major_axis_km": 6917.87064454064,
      "eccentricity": 0.00013469,
      "inclination_deg": 53.218,
      "raan_deg": 292.5407,
      "arg_perigee_deg": 99.0777,
      "mean_anomaly_deg": 261.0368,
      "mean_motion_rev_day": 15.08843188
    },
    {
      "epoch": "2026-03-30T13:38:28.925376Z",
      "apogee_km": 540.5707241974733,
      "perigee_km": 538.9379634825009,
      "latitude_deg": -1.215748517451221e-05,
      "longitude_deg": -107.17498727623799,
      "height_km": 540.6965923494862,
      "semi_major_axis_km": 6917.891343839987,
      "eccentricity": 0.00011801,
      "inclination_deg": 53.2172,
      "raan_deg": 285.4038,
      "arg_perigee_deg": 93.2522,
      "mean_anomaly_deg": 266.8605,
      "mean_motion_rev_day": 15.08836416
    },
    {
      "epoch": "2026-03-30T18:24:38.418048Z",
      "apogee_km": 540.5684332330584,
      "perigee_km": 538.9441118926607,
      "latitude_deg": 4.0808222206770636e-05,
      "longitude_deg": -179.8025688008405,
      "height_km": 540.6935638765889,
      "semi_major_axis_km": 6917.893272562859,
      "eccentricity": 0.0001174,
      "inclination_deg": 53.2172,
      "raan_deg": 284.5116,
      "arg_perigee_deg": 92.9189,
      "mean_anomaly_deg": 267.1938,
      "mean_motion_rev_day": 15.08835785
    },
    {
      "epoch": "2026-03-31T13:29:16.230624Z",
      "apogee_km": 540.6177818955048,
      "perigee_km": 538.9130723794096,
      "latitude_deg": -8.586838794724647e-06,
      "longitude_deg": -110.31152840824383,
      "height_km": 540.7089844129473,
      "semi_major_axis_km": 6917.902427137457,
      "eccentricity": 0.00012321,
      "inclination_deg": 53.2173,
      "raan_deg": 280.9437,
      "arg_perigee_deg": 93.2071,
      "mean_anomaly_deg": 266.9062,
      "mean_motion_rev_day": 15.0883279
    },
    {
      "epoch": "2026-04-01T11:44:40.062048Z",
      "apogee_km": 540.6546384445728,
      "perigee_km": 538.8518362487212,
      "latitude_deg": 1.942135996038365e-05,
      "longitude_deg": -89.23795086262763,
      "height_km": 540.7362377971266,
      "semi_major_axis_km": 6917.890237346647,
      "eccentricity": 0.0001303,
      "inclination_deg": 53.217,
      "raan_deg": 276.7806,
      "arg_perigee_deg": 95.5549,
      "mean_anomaly_deg": 264.5592,
      "mean_motion_rev_day": 15.08836778
    },
    {
      "epoch": "2026-04-02T17:56:59.881056Z",
      "apogee_km": 540.685322945782,
      "perigee_km": 538.8132045650837,
      "latitude_deg": -1.3771022140859261e-05,
      "longitude_deg": 170.78905038694015,
      "height_km": 540.657638684308,
      "semi_major_axis_km": 6917.886263755432,
      "eccentricity": 0.00013531,
      "inclination_deg": 53.2172,
      "raan_deg": 271.1307,
      "arg_perigee_deg": 90.7761,
      "mean_anomaly_deg": 269.3386,
      "mean_motion_rev_day": 15.08838078
    },
    {
      "epoch": "2026-04-03T17:47:47.099904Z",
      "apogee_km": 540.8600019574287,
      "perigee_km": 538.6462771127772,
      "latitude_deg": 4.58546019436358e-05,
      "longitude_deg": 167.65091075462917,
      "height_km": 540.6612310101124,
      "semi_major_axis_km": 6917.890139535103,
      "eccentricity": 0.00016,
      "inclination_deg": 53.2146,
      "raan_deg": 266.6686,
      "arg_perigee_deg": 90.6744,
      "mean_anomaly_deg": 269.4432,
      "mean_motion_rev_day": 15.0883681
    },
    {
      "epoch": "2026-04-03T17:47:47.100768Z",
      "apogee_km": 540.8602094941334,
      "perigee_km": 538.6460695760734,
      "latitude_deg": 4.307225654990684e-05,
      "longitude_deg": 167.65090507584233,
      "height_km": 540.6612334545787,
      "semi_major_axis_km": 6917.890139535103,
      "eccentricity": 0.00016003,
      "inclination_deg": 53.2146,
      "raan_deg": 266.6686,
      "arg_perigee_deg": 90.6744,
      "mean_anomaly_deg": 269.4432,
      "mean_motion_rev_day": 15.0883681
    },
    {
      "epoch": "2026-04-05T14:18:34.855200Z",
      "apogee_km": 540.6464865440003,
      "perigee_km": 538.8699710492456,
      "latitude_deg": 2.1067862958498653e-05,
      "longitude_deg": -150.20098496551722,
      "height_km": 540.5809180743112,
      "semi_major_axis_km": 6917.895228796623,
      "eccentricity": 0.0001284,
      "inclination_deg": 53.2167,
      "raan_deg": 258.3438,
      "arg_perigee_deg": 85.2827,
      "mean_anomaly_deg": 274.8312,
      "mean_motion_rev_day": 15.08835145
    },
    {
      "epoch": "2026-04-05T20:40:07.620384Z",
      "apogee_km": 540.5934321536988,
      "perigee_km": 538.9289858446127,
      "latitude_deg": -1.9444885001821937e-05,
      "longitude_deg": 112.96240382090468,
      "height_km": 540.4934274299147,
      "semi_major_axis_km": 6917.898208999155,
      "eccentricity": 0.0001203,
      "inclination_deg": 53.2169,
      "raan_deg": 257.1549,
      "arg_perigee_deg": 78.6568,
      "mean_anomaly_deg": 281.4559,
      "mean_motion_rev_day": 15.0883417
    },
    {
      "epoch": "2026-04-07T10:49:22.837728Z",
      "apogee_km": 540.7046473923638,
      "perigee_km": 538.8188281964403,
      "latitude_deg": -3.0820122856410896e-05,
      "longitude_deg": -108.05475271336789,
      "height_km": 540.7630661282539,
      "semi_major_axis_km": 6917.898737794401,
      "eccentricity": 0.0001363,
      "inclination_deg": 53.2188,
      "raan_deg": 250.0181,
      "arg_perigee_deg": 96.422,
      "mean_anomaly_deg": 263.6927,
      "mean_motion_rev_day": 15.08833997
    },
    {
      "epoch": "2026-04-07T17:10:55.426656Z",
      "apogee_km": 540.7013846359669,
      "perigee_km": 538.8169497200279,
      "latitude_deg": -2.743758700520848e-05,
      "longitude_deg": 155.10890481918094,
      "height_km": 540.7566068233511,
      "semi_major_axis_km": 6917.896167177997,
      "eccentricity": 0.0001362,
      "inclination_deg": 53.219,
      "raan_deg": 248.8287,
      "arg_perigee_deg": 96.1875,
      "mean_anomaly_deg": 263.9272,
      "mean_motion_rev_day": 15.08834838
    },
    {
      "epoch": "2026-04-08T13:50:56.682816Z",
      "apogee_km": 540.7675045395354,
      "perigee_km": 538.7620048208546,
      "latitude_deg": -4.973608787539881e-05,
      "longitude_deg": -159.61001254446379,
      "height_km": 540.8027274147024,
      "semi_major_axis_km": 6917.901754680195,
      "eccentricity": 0.00014495,
      "inclination_deg": 53.2196,
      "raan_deg": 244.9638,
      "arg_perigee_deg": 98.1488,
      "mean_anomaly_deg": 261.9668,
      "mean_motion_rev_day": 15.0883301
    },
    {
      "epoch": "2026-04-08T18:37:06.162528Z",
      "apogee_km": 540.7617213589438,
      "perigee_km": 538.7682587214931,
      "latitude_deg": 1.5050376363921848e-05,
      "longitude_deg": 127.76256802040254,
      "height_km": 540.7939280582926,
      "semi_major_axis_km": 6917.901990040218,
      "eccentricity": 0.00014408,
      "inclination_deg": 53.2194,
      "raan_deg": 244.0717,
      "arg_perigee_deg": 97.6752,
      "mean_anomaly_deg": 262.4404,
      "mean_motion_rev_day": 15.08832933
    },
    {
      "epoch": "2026-04-11T18:09:25.104384Z",
      "apogee_km": 541.0656503173677,
      "perigee_km": 538.8587766682631,
      "latitude_deg": -1.841436652717211e-05,
      "longitude_deg": 118.3588258771705,
      "height_km": 540.9521558561041,
      "semi_major_axis_km": 6918.099213492815,
      "eccentricity": 0.0001595,
      "inclination_deg": 53.2176,
      "raan_deg": 230.6849,
      "arg_perigee_deg": 94.9162,
      "mean_anomaly_deg": 265.2012,
      "mean_motion_rev_day": 15.08768412
    },
    {
      "epoch": "2026-04-12T18:00:13.972608Z",
      "apogee_km": 540.6241579655916,
      "perigee_km": 538.8722727136592,
      "latitude_deg": 4.021133774310763e-06,
      "longitude_deg": 115.21776649177505,
      "height_km": 540.6994789742945,
      "semi_major_axis_km": 6917.885215339625,
      "eccentricity": 0.00012662,
      "inclination_deg": 53.2174,
      "raan_deg": 226.2268,
      "arg_perigee_deg": 93.6279,
      "mean_anomaly_deg": 266.4858,
      "mean_motion_rev_day": 15.08838421
    },
    {
      "epoch": "2026-04-14T16:06:25.475616Z",
      "apogee_km": 540.5691436812967,
      "perigee_km": 538.9475890074254,
      "latitude_deg": 1.0083987560308113e-05,
      "longitude_deg": 133.15375232263037,
      "height_km": 540.5818923636177,
      "semi_major_axis_km": 6917.895366344361,
      "eccentricity": 0.0001172,
      "inclination_deg": 53.2174,
      "raan_deg": 217.6041,
      "arg_perigee_deg": 84.8738,
      "mean_anomaly_deg": 275.2388,
      "mean_motion_rev_day": 15.088351
    },
    {
      "epoch": "2026-04-15T14:21:49.402944Z",
      "apogee_km": 540.5289887088729,
      "perigee_km": 538.9793810834572,
      "latitude_deg": 1.7532713572803897e-06,
      "longitude_deg": 154.22710263125214,
      "height_km": 540.5835561581,
      "semi_major_axis_km": 6917.891184896165,
      "eccentricity": 0.000112,
      "inclination_deg": 53.2173,
      "raan_deg": 213.4412,
      "arg_perigee_deg": 85.0646,
      "mean_anomaly_deg": 275.0474,
      "mean_motion_rev_day": 15.08836468
    }
  ]
}